{"fetched_at":"2026-03-29T16:36:15Z","count":15609,"tles":[{"name":"STARLINK-35132","line1":"1 66461U 25262F   26087.75137589  .00033329  00000+0  12136-2 0  9992","line2":"2 66461  43.0006 188.3524 0002038 284.1993  75.8632 15.27623725 21822","category":"Starlink"}]}